{
  "norad_id": 59409,
  "name": "STARLINK-31396",
  "history": [
    {
      "epoch": "2026-03-28T21:22:14.686464",
      "apogee_km": 483.6752745273434,
      "perigee_km": 482.37933781319316,
      "latitude_deg": -29.30858224558251,
      "longitude_deg": -153.61701504001394,
      "semi_major_axis_km": 6861.164306170268,
      "eccentricity": 9.444e-05,
      "inclination_deg": 43.0026,
      "raan_deg": 297.2283,
      "arg_perigee_deg": 276.5862,
      "mean_anomaly_deg": 83.4882,
      "mean_motion_rev_day": 15.27587277
    },
    {
      "epoch": "2026-03-28T22:56:24.125856",
      "apogee_km": 483.884541478792,
      "perigee_km": 482.18159906735036,
      "latitude_deg": 12.556346388610613,
      "longitude_deg": -147.3398601601366,
      "semi_major_axis_km": 6861.17007027307,
      "eccentricity": 0.0001241,
      "inclination_deg": 43.0024,
      "raan_deg": 296.8603,
      "arg_perigee_deg": 276.3926,
      "mean_anomaly_deg": 83.6784,
      "mean_motion_rev_day": 15.27585352
    }
  ]
}